IRIDIUM 159             
1 43578U 18061K   23360.28528916  .00000519  00000+0  17810-3 0  9992
2 43578  86.3954  74.4781 0002089 100.9920 259.1511 14.34215780283827
IRIDIUM 180             
1 43922U 19002A   23360.56386899  .00000482  00000+0  16507-3 0  9995
2 43922  86.3968  11.2358 0002083  96.2894 263.8539 14.34220952259478
IRIDIUM 176             
1 43923U 19002B   23360.52824993  .00001704  00000+0  26608-3 0  9995
2 43923  86.6097  11.2815 0002451  91.5121 268.6377 14.72281731266298
IRIDIUM 168             
1 43924U 19002C   23360.55752332  .00000479  00000+0  16403-3 0  9996
2 43924  86.3970  11.2904 0002117  93.3695 266.7743 14.34220429259451
IRIDIUM 173             
1 43925U 19002D   23360.54484423  .00000489  00000+0  16764-3 0  9990
2 43925  86.3967  11.2216 0002258  93.2468 266.8986 14.34219903259430
IRIDIUM 169             
1 43926U 19002E   23360.58371391  .00000546  00000+0  17210-3 0  9995
2 43926  86.4221  42.8123 0004975  86.8135 273.3633 14.38610178260313
IRIDIUM 172             
1 43927U 19002F   23360.53849806  .00000477  00000+0  16315-3 0  9990
2 43927  86.3967  11.2295 0002104  92.4153 267.7284 14.34222410259440
IRIDIUM 175             
1 43928U 19002G   23360.52232627  .00001859  00000+0  29069-3 0  9992
2 43928  86.1508 354.2499 0002483  89.4637 270.6864 14.72275798266285
